STARLINK-31308          
1 59153U 24044B   26068.01372359  .00000726  00000+0  35921-4 0  9997
2 59153  43.0032  64.0106 0001482 280.6696  79.3989 15.27567770114048
FLOCK 4G-3              
1 62639U 25009AG  26068.80174065  .00011494  00000+0  43389-3 0  9993
2 62639  97.4062 151.4068 0001320 293.2042  66.9058 15.27179310 63727
